{
  "last_updated": "2026-05-21T06:00:03.278714",
  "satellites": {
    "98592": {
      "name": "DUTHSat-2",
      "norad_id": "98592",
      "tle": "1 64530U 25135C   26140.59910461  .00008988  00000-0  35032-3 0  9991\n2 64530  97.4598 256.5411 0003298 285.6002  74.4873 15.26182796 50725",
      "epoch": "2026-05-20T14:22:42.638304",
      "fetched_at": "2026-05-21T06:00:03.406498",
      "source": "satnogs"
    },
    "98530": {
      "name": "LAMARR",
      "norad_id": "98530",
      "tle": "1 66673U 25276H   26026.90917087  .00034524  00000-0  16680-2 0  9998\n2 66673  97.4301 102.8338 0007597 141.5941 218.5835 15.18529012  8972",
      "epoch": "2026-01-26T21:49:12.363168",
      "fetched_at": "2026-01-28T06:00:02.884758",
      "source": "satnogs",
      "note": "Using previous TLE (fetch/manual failed today)"
    },
    "98529": {
      "name": "DIRAC",
      "norad_id": "98529",
      "tle": "1 66681U 25276R   26026.63281774  .00024563  00000-0  11745-2 0  9993\n2 66681  97.4280 102.5712 0006320 148.4115 211.7500 15.18972786  8932",
      "epoch": "2026-01-26T15:11:15.452736",
      "fetched_at": "2026-01-28T06:00:02.937152",
      "source": "satnogs",
      "note": "Using previous TLE (fetch/manual failed today)"
    },
    "98518": {
      "name": "MICE-1",
      "norad_id": "98518",
      "tle": "1 66684U 25276U   26140.51328518  .00002278  00000-0  11215-3 0  9990\n2 66684  97.4274 214.6058 0007202  92.4496 267.7563 15.18963363 26218",
      "epoch": "2026-05-20T12:19:07.839552",
      "fetched_at": "2026-05-21T06:00:03.582678",
      "source": "satnogs"
    },
    "68416": {
      "name": "PeakSat",
      "norad_id": "68416",
      "tle": "1 68416U 26067A   26140.69310301  .00004837  00000-0  23383-3 0  9996\n2 68416  97.4537  99.6270 0003222  49.4260 310.7254 15.19086007  7779",
      "epoch": "2026-05-20T16:38:04.100064",
      "fetched_at": "2026-05-21T06:00:03.640801",
      "source": "satnogs"
    },
    "98370": {
      "name": "OptiSat",
      "norad_id": "98370",
      "tle": "1 69696U 69696    26089.46895426  .00000000  00000-0  00000-0 0 00004\n2 69696 097.4414 038.3720 0003145 156.7651 191.1423 15.18459822000011",
      "epoch": "2026-03-30T11:15:17.648064",
      "fetched_at": "2026-04-17T12:47:18.541523",
      "source": "manual"
    },
    "68468": {
      "name": "ERMIS-1",
      "norad_id": "68468",
      "tle": "1 68468U 26067BE  26139.83547854  .00006528  00000-0  33161-3 0  9996\n2 68468  97.4545  98.6409 0008010 140.3844 219.7976 15.17192158  7634",
      "epoch": "2026-05-19T20:03:05.345856",
      "fetched_at": "2026-05-21T06:00:03.698311",
      "source": "satnogs"
    },
    "68420": {
      "name": "ERMIS-2",
      "norad_id": "68420",
      "tle": "1 68420U 26067E   26140.16641284  .00006912  00000-0  33160-3 0  9990\n2 68420  97.4473  99.0687 0002511  55.6537 304.4935 15.19193486  7692",
      "epoch": "2026-05-20T03:59:38.069376",
      "fetched_at": "2026-05-21T06:00:03.758470",
      "source": "satnogs"
    },
    "98367": {
      "name": "ERMIS-3",
      "norad_id": "98367",
      "tle": "1 68425U 26067K   26140.64478115  .00003691  00000-0  18235-3 0  9996\n2 68425  97.4579  99.5670 0003525  80.6899 279.4733 15.18481014  7767",
      "epoch": "2026-05-20T15:28:29.091360",
      "fetched_at": "2026-05-21T06:00:03.819029",
      "source": "satnogs"
    },
    "69021": {
      "name": "Helios",
      "norad_id": "69021",
      "tle": "1 69021U 26100AT  26140.91571004  .00004203  00000-0  20049-3 0  9994\n2 69021  97.4048  39.2036 0006757  85.6781 274.5226 15.19604727  2669",
      "epoch": "2026-05-20T21:58:37.347456",
      "fetched_at": "2026-05-21T06:00:03.868711",
      "source": "satnogs"
    },
    "69020": {
      "name": "Selene",
      "norad_id": "69020",
      "tle": "1 69020U 26100AS  26140.91683399  .00005594  00000-0  26649-3 0  9990\n2 69020  97.4064  39.2087 0006161  80.9132 279.2799 15.19510623  2667",
      "epoch": "2026-05-20T22:00:14.456736",
      "fetched_at": "2026-05-21T06:00:03.924788",
      "source": "satnogs"
    }
  },
  "fetch_log": []
}